satname,norad_id,inclination_deg,eccentricity,mean_motion_rev_per_day,perigee_km,apogee_km,l1,l2
STARLINK-1008,44714,53.1515,0.0003914,15.53269761,404.5311131119179,409.8426646521348,1 44714U 19074B   26192.78676345  .00052046  00000+0  81413-3 0  9993,2 44714  53.1515 310.6700 0003914 307.7664  52.2991 15.53269761368032
STARLINK-1012,44718,53.155,0.000429,15.53655191,403.1542201432303,408.97506515262194,1 44718U 19074F   26192.84183889  .00045927  00000+0  70983-3 0  9990,2 44718  53.1550 310.6259 0004290 313.2936  46.7717 15.53655191368036
STARLINK-1017,44723,53.0479,0.0001432,15.34085564,462.65822771371677,464.61771206509275,1 44723U 19074L   26192.58641591  .00029080  00000+0  87707-3 0  9990,2 44723  53.0479 315.3178 0001432 104.0250 256.0910 15.34085564367921
STARLINK-1020,44725,53.1563,0.0003678,15.59516564,386.56625845908,391.54420506476436,1 44725U 19074N   26192.67928963  .00062851  00000+0  77787-3 0  9993,2 44725  53.1563 334.1132 0003678 269.4698  90.5894 15.59516564367673
STARLINK-1036,44741,53.0434,0.0002818,15.77048301,336.91597722855295,340.7016478885107,1 44741U 19074AE  26192.58519322  .00054133  00000+0  32789-3 0  9993,2 44741  53.0434 299.1935 0002818   2.5364 357.5669 15.77048301368147
STARLINK-1039,44744,53.058,0.0002269,15.31037287,471.16176215157884,474.27067934315346,1 44744U 19074AH  26192.74634661  .00027121  00000+0  90079-3 0  9991,2 44744  53.0580   0.7104 0002269 170.9121 189.1920 15.31037287367304
STARLINK-1042,44747,53.0399,9.48e-05,15.5573779,399.3662442855384,400.6513807315905,1 44747U 19074AL  26192.48239841  .00013896  00000+0  20471-3 0  9999,2 44747  53.0399 218.1083 0000948  54.8422 305.2677 15.55737790369306
STARLINK-1043,44748,53.0483,0.0001579,15.67019524,366.3717504084534,368.5020026386601,1 44748U 19074AM  26192.55914183  .00031124  00000+0  29097-3 0  9994,2 44748  53.0483 311.8356 0001579 355.8889   4.2113 15.67019524367970
STARLINK-1046,44751,53.0473,0.0003338,15.59809208,385.9501800786138,390.46739252554835,1 44751U 19074AQ  26192.68180841  .00072670  00000+0  88735-3 0  9993,2 44751  53.0473 334.5696 0003338 222.8778 137.1974 15.59809208367661
STARLINK-1047,44752,53.069,0.0001429,15.35288565,459.0863327568077,461.0406904630254,1 44752U 19074AR  26192.55311436  .00031358  00000+0  90928-3 0  9991,2 44752  53.0690 286.1892 0001429 225.1457 134.9429 15.35288565368350
STARLINK-1048,44753,53.0439,0.0001721,15.70971238,354.96101928931057,357.2789505435185,1 44753U 19074AS  26192.54115638  .00040189  00000+0  31785-3 0  9995,2 44753  53.0439 282.4688 0001721 136.6904 223.4248 15.70971238368372
STARLINK-1063,44768,53.154,0.00022,15.53358047,405.43707322358387,408.42250261026766,1 44768U 19074BH  26192.86384264  .00054414  00000+0  84802-3 0  9993,2 44768  53.1540 351.3379 0002200 276.9235  83.1525 15.53358047367481
STARLINK-1067,44771,53.043,0.0005737,15.83605639,316.4109318619485,324.09666546433346,1 44771U 19074BL  26192.61841705  .00087442  00000+0  38881-3 0  9991,2 44771  53.0430 311.1792 0005737 328.6657  31.4023 15.83605639367985
STARLINK-1068,44772,53.0394,0.0005368,15.8117634,323.5135458766381,330.712302195082,1 44772U 19074BM  26192.85646188  .00069395  00000+0  34710-3 0  9990,2 44772  53.0394 284.1413 0005368 339.8745  20.2063 15.81176340368370
STARLINK-1114,44927,53.04,0.0001693,15.73319328,348.2790106472212,350.5569607653824,1 44927U 20001P   26192.86678023  .00043801  00000+0  31322-3 0  9998,2 44927  53.0400  83.2714 0001693 185.3953 174.7046 15.73319328359499
STARLINK-1123,44930,53.1396,0.0006754,15.63454127,373.12544606229585,382.25121491872324,1 44930U 20001S   26192.84230948  .00072916  00000+0  77291-3 0  9994,2 44930  53.1396 112.9705 0006754  71.0231 289.1515 15.63454127359095
STARLINK-1094,44941,53.1498,0.0006213,15.58820964,386.862545492133,395.273959939158,1 44941U 20001AD  26192.83154836  .00058539  00000+0  74430-3 0  9993,2 44941  53.1498  89.1431 0006213  95.5224 264.6497 15.58820964359439
STARLINK-1122,44949,53.1528,0.0006174,15.58487689,387.8533562502862,396.2131624865542,1 44949U 20001AM  26192.26217399  .00039470  00000+0  51152-3 0  9991,2 44949  53.1528  92.4811 0006174  84.7744 275.3973 15.58487689359333
STARLINK-1080,44961,53.0447,0.0001753,15.71214007,354.24589797423505,356.60668526427617,1 44961U 20001AZ  26192.81513433  .00037471  00000+0  29377-3 0  9997,2 44961  53.0447  43.9663 0001753 157.1523 202.9572 15.71214007360048
STARLINK-1090,44968,53.1466,0.0004802,15.5476523,399.57893982625774,406.0913854912751,1 44968U 20001BG  26192.84844252  .00069653  00000+0  10271-2 0  9992,2 44968  53.1466  78.3182 0004802  96.6975 263.4583 15.54765230359582
STARLINK-1132,45044,53.1492,0.0001548,15.59934653,386.7986552139437,388.8934035598422,1 45044U 20006A   26192.77027450  .00037537  00000+0  46129-3 0  9996,2 45044  53.1492  18.4135 0001548 170.9405 189.1637 15.59934653356198
STARLINK-1131,45047,53.1527,0.0001658,15.57202749,394.6339474068918,396.88017067686997,1 45047U 20006D   26192.08922811  .00046246  00000+0  62756-3 0  9999,2 45047  53.1527  55.4181 0001658  48.2055 311.9099 15.57202749355617
STARLINK-1134,45048,53.0232,0.0006852,15.63109764,374.05075681824655,383.31029955887607,1 45048U 20006E   26192.75930436  .00031468  00000+0  34306-3 0  9996,2 45048  53.0232 359.8726 0006852 198.3703 161.7064 15.63109764356427
STARLINK-1156,45054,53.1569,0.0004077,15.38028232,449.1559524496088,454.7251977043261,1 45054U 20006L   26192.81968485  .00026269  00000+0  69965-3 0  9997,2 45054  53.1569  61.8912 0004077 116.1570 243.9854 15.38028232355580
STARLINK-1166,45060,53.0429,1.03e-05,15.68815158,362.2192364050088,362.35808917366285,1 45060U 20006S   26192.83929683  .00036414  00000+0  31545-3 0  9999,2 45060  53.0429  31.9718 0000103 124.4262 235.6764 15.68815158355985
STARLINK-1169,45061,53.1535,0.0004865,15.41575454,438.14131228858787,444.77677924111686,1 45061U 20006T   26192.84209837  .00035331  00000+0  83341-3 0  9991,2 45061  53.1535  59.5210 0004865  86.0643 274.0919 15.41575454355626
STARLINK-1171,45062,53.0381,0.0001017,15.79848368,330.1875765472996,331.5521885472108,1 45062U 20006U   26192.75458831  .00065457  00000+0  34856-3 0  9991,2 45062  53.0381 354.9367 0001017 339.8880  20.2101 15.79848368356496
STARLINK-1133,45064,53.1548,0.000389,15.37848377,449.81598650735305,455.1302011603557,1 45064U 20006W   26192.85724251  .00023439  00000+0  62928-3 0  9991,2 45064  53.1548  38.5098 0003890 115.5590 244.5817 15.37848377355924
STARLINK-1167,45071,53.1545,0.0001994,15.40592499,442.9991012691671,445.71991287618766,1 45071U 20006AD  26192.86779756  .00061537  00000+0  14876-2 0  9999,2 45071  53.1545  36.8990 0001994  83.9345 276.1887 15.40592499355945
STARLINK-1168,45072,53.157,0.0003276,15.38384309,448.649412179665,453.12378844259,1 45072U 20006AE  26192.82965161  .00031594  00000+0  82923-3 0  9992,2 45072  53.1570  38.7561 0003276 105.9363 254.2003 15.38384309355919
STARLINK-1172,45074,53.1539,0.0002813,15.4162241,439.4022537477749,443.23888057505974,1 45074U 20006AG  26192.86773558  .00035485  00000+0  83586-3 0  9994,2 45074  53.1539  35.9824 0002813  78.1570 281.9751 15.41622410355957
STARLINK-1153,45080,53.1565,0.0004349,15.40551193,441.51430179992985,447.4486153351918,1 45080U 20006AN  26192.84970265  .00033810  00000+0  82565-3 0  9999,2 45080  53.1565  36.8903 0004349  62.7089 297.4359 15.40551193355944
STARLINK-1151,45081,53.0438,0.000977,16.01182017,264.6479384637132,277.64063409710434,1 45081U 20006AP  26192.88076334  .00265411  41132-4  47475-3 0  9999,2 45081  53.0438 338.9446 0009770 313.0482  46.9729 16.01182017356721
STARLINK-1185,45087,53.1578,0.0002713,15.49879683,415.2341792598263,418.92126276744875,1 45087U 20006AV  26192.79610272  .00052448  00000+0  92591-3 0  9997,2 45087  53.1578  15.1116 0002713 144.9996 215.1192 15.49879683356246
STARLINK-1183,45088,53.1565,0.0003256,15.37734691,450.58559519986557,455.0339077244189,1 45088U 20006AW  26192.75375253  .00032788  00000+0  87833-3 0  9999,2 45088  53.1565  23.8327 0003256 139.7403 220.3842 15.37734691356113
STARLINK-1152,45096,53.0325,0.0003285,15.53184865,405.20508055324626,409.66320079266825,1 45096U 20006BE  26192.86732391  .00050034  00000+0  78553-3 0  9993,2 45096  53.0325 334.2105 0003285 264.5385  95.5249 15.53184865356793
STARLINK-1184,45098,53.0511,0.0004495,15.1578857,515.4854901417511,521.6856437294264,1 45098U 20006BG  26192.84575250  .00016259  00000+0  85546-3 0  9993,2 45098  53.0511  42.2403 0004495 133.7007 226.4359 15.15788570355833
STARLINK-1193,45100,53.0468,0.0003455,15.71589162,352.02859113175145,356.68074287365107,1 45100U 20006BJ  26192.64458149  .00048771  00000+0  37444-3 0  9990,2 45100  53.0468 342.5534 0003455  48.4666 311.6647 15.71589162356653
STARLINK-1143,45179,53.0277,0.0003877,16.0925331,246.32315121909596,251.4617498550424,1 45179U 20012B   26192.82911286  .00456364  11479-3  49704-3 0  9998,2 45179  53.0277  65.6634 0003877 232.8556 127.2123 16.09253310355560
STARLINK-1202,45183,53.1534,0.0004541,15.37388207,450.7336492858167,456.93844720823563,1 45183U 20012F   26191.40275960  .00033594  00000+0  90958-3 0  9995,2 45183  53.1534 186.9699 0004541  14.9850 345.1287 15.37388207353772
STARLINK-1216,45185,53.1532,0.0003056,15.37957158,450.06366416910987,454.2383361948205,1 45185U 20012H   26192.47891853  .00029723  00000+0  79182-3 0  9995,2 45185  53.1532 181.6866 0003056  27.7698 332.3469 15.37957158353881
STARLINK-1225,45187,53.1562,0.0004967,15.37811341,449.1899452428197,455.9755822561283,1 45187U 20012K   26191.37248683  .00031965  00000+0  85436-3 0  9992,2 45187  53.1562 187.3481 0004967  15.4484 344.6671 15.37811341353751
STARLINK-1230,45189,53.1516,0.0004821,15.37804372,449.31030069257577,455.8965005868731,1 45189U 20012M   26192.36168440  .00029330  00000+0  78526-3 0  9991,2 45189  53.1516 182.8017 0004821  24.0478 336.0750 15.37804372351134
